GLOBALSTAR M075         
1 37192U 10054E   25358.21427079 -.00000088  00000+0  85706-4 0  9993
2 37192  52.0022 322.9423 0000480 109.7567 352.3949 12.62261317699849
GLOBALSTAR M073         
1 37193U 10054F   25359.01467015 -.00000084  00000+0  11295-3 0  9994
2 37193  52.0046 234.4780 0001087  60.6007  78.1814 12.62268331701938
GLOBALSTAR M083         
1 37739U 11033A   25358.84134904 -.00000100  00000+0  20553-4 0  9993
2 37739  51.9830 183.4710 0001029  78.3816 294.3644 12.62266039670930
GLOBALSTAR M088         
1 37740U 11033B   25359.21214549 -.00000093  00000+0  62152-4 0  9993
2 37740  52.0219  88.3467 0000771 126.5195 251.3815 12.62270996666526
GLOBALSTAR M091         
1 37741U 11033C   25359.14845041 -.00000102  00000+0  85096-5 0  9997
2 37741  52.0012  51.7651 0000382 141.8780 245.6187 12.62268202667307
GLOBALSTAR M085         
1 37742U 11033D   25359.31077598 -.00000102  00000+0  11603-4 0  9993
2 37742  52.0147   2.4105 0000059  22.4052  83.7476 12.62267460667836
GLOBALSTAR M081         
1 37743U 11033E   25351.59018587 -.00000087  00000+0  92331-4 0  9998
2 37743  51.9980  28.5496 0000222  94.7932  71.3857 12.62270971667009
GLOBALSTAR M089         
1 37744U 11033F   25359.05337375 -.00000083  00000+0  11849-3 0  9997
2 37744  51.9951 320.0195 0000719  70.2790   6.6297 12.62262694668795
